O3B MPOWER F1           
1 54755U 22174A   23351.46092164 -.00000012  00000+0  00000+0 0  9990
2 54755   0.0559  16.3152 0005925 263.4214 114.3408  5.00118343 19699
